[{"OBJECT_NAME":"TIANQI-29","OBJECT_ID":"2024-170A","EPOCH":"2026-03-09T20:46:41.243232","MEAN_MOTION":13.99108812,"ECCENTRICITY":0.00055066,"INCLINATION":44.8559,"RA_OF_ASC_NODE":219.5799,"ARG_OF_PERICENTER":342.0099,"MEAN_ANOMALY":18.0536,"EPHEMERIS_TYPE":0,"CLASSIFICATION_TYPE":"U","NORAD_CAT_ID":61195,"ELEMENT_SET_NO":999,"REV_AT_EPOCH":7495,"BSTAR":0.00015072092,"MEAN_MOTION_DOT":9.2e-7,"MEAN_MOTION_DDOT":0},{"OBJECT_NAME":"SL-16 DEB","OBJECT_ID":"1992-093HW","EPOCH":"2026-03-07T10:27:16.862976","MEAN_MOTION":14.15307373,"ECCENTRICITY":0.01284729,"INCLINATION":71.085,"RA_OF_ASC_NODE":69.3471,"ARG_OF_PERICENTER":289.0065,"MEAN_ANOMALY":222.1908,"EPHEMERIS_TYPE":0,"CLASSIFICATION_TYPE":"U","NORAD_CAT_ID":22574,"ELEMENT_SET_NO":999,"REV_AT_EPOCH":68677,"BSTAR":0.0018593016,"MEAN_MOTION_DOT":3.876e-5,"MEAN_MOTION_DDOT":0}]
